STARLINK-5680           
1 55455U 23015G   23055.85733508  .00031203  00000+0  24038-3 0  9997
2 55455  43.0003 252.9245 0002041 255.5130 104.5512 15.71366421  3707
STARLINK-5058           
1 55456U 23015H   23055.85691861  .00079510  00000+0  60402-3 0  9991
2 55456  43.0002 252.9220 0002206 242.9412 117.1231 15.71353265  3706
STARLINK-5682           
1 55457U 23015J   23056.23838968  .00064242  00000+0  48859-3 0  9994
2 55457  43.0004 250.6226 0001870 256.9211 103.1448 15.71402517  3764
STARLINK-5020           
1 55458U 23015K   23055.85639155  .00023057  00000+0  17878-3 0  9995
2 55458  43.0001 252.9163 0001873 252.4690 107.5973 15.71355420  3707
STARLINK-5669           
1 55459U 23015L   23056.23797416  .00071433  00000+0  54282-3 0  9995
2 55459  43.0001 250.6199 0001196 272.1137  87.9594 15.71386145  3769
STARLINK-5678           
1 55460U 23015M   23055.85649814  .00071591  00000+0  54476-3 0  9992
2 55460  42.9999 252.9187 0001809 254.1641 105.9027 15.71352467  3704
STARLINK-5646           
1 55461U 23015N   23055.85668935  .00029798  00000+0  22946-3 0  9997
2 55461  43.0003 252.9204 0002068 256.6617 103.4021 15.71396905  3703
STARLINK-5673           
1 55462U 23015P   23056.23744573  .00081013  00000+0  61408-3 0  9998
2 55462  43.0004 250.6160 0002045 256.0971 103.9669 15.71399347  3765
STARLINK-5677           
1 55463U 23015Q   23055.91984985  .00061804  00000+0  47128-3 0  9995
2 55463  43.0001 252.5336 0001990 251.3514 108.7138 15.71353646  3719
STARLINK-5676           
1 55464U 23015R   23056.23712896  .00064277  00000+0  48899-3 0  9995
2 55464  43.0003 250.6130 0002020 260.5126  99.5514 15.71395346  3762
STARLINK-5674           
1 55465U 23015S   23056.23734085  .00065213  00000+0  49609-3 0  9991
2 55465  43.0001 250.6149 0001870 254.2248 105.8414 15.71391450  3579
STARLINK-5628           
1 55466U 23015T   23055.85533063  .00059311  00000+0  45288-3 0  9993
2 55466  43.0005 252.9091 0001968 269.8991  90.1651 15.71335784  3702
STARLINK-5679           
1 55467U 23015U   23055.85618241  .00065968  00000+0  50246-3 0  9991
2 55467  43.0002 252.9166 0001842 259.8224 100.2436 15.71358084  3704
STARLINK-5672           
1 55468U 23015V   23055.85565802  .00073439  00000+0  55864-3 0  9999
2 55468  43.0003 252.9115 0001700 250.2314 109.8370 15.71351288  3709
STARLINK-5681           
1 55469U 23015W   23056.23723321  .00057913  00000+0  44124-3 0  9991
2 55469  43.0005 250.6142 0002131 257.5817 102.4812 15.71395769  3762
STARLINK-5708           
1 55470U 23015X   23056.23692011  .00042786  00000+0  32787-3 0  9998
2 55470  43.0004 250.6116 0001837 266.1337  93.9320 15.71367912  3766
STARLINK-5711           
1 55471U 23015Y   23056.23681355  .00069967  00000+0  53152-3 0  9997
2 55471  43.0006 250.6102 0002293 268.1552  91.9054 15.71398911  3767
STARLINK-5705           
1 55472U 23015Z   23055.85502567  .00063290  00000+0  48250-3 0  9998
2 55472  43.0002 252.9073 0002031 263.7648  96.2989 15.71350716  3703
STARLINK-5687           
1 55473U 23015AA  23055.85523675  .00067150  00000+0  51171-3 0  9997
2 55473  43.0003 252.9086 0001958 251.5243 108.5412 15.71340141  3701
STARLINK-5689           
1 55474U 23015AB  23055.85471352  .00067808  00000+0  51713-3 0  9994
2 55474  43.0005 252.9045 0002265 261.6293  98.4318 15.71317412  3705
STARLINK-5650           
1 55475U 23015AC  23056.23649808  .00066077  00000+0  50242-3 0  9994
2 55475  43.0003 250.6083 0001894 261.3565  98.7088 15.71398483  3767
STARLINK-5596           
1 55476U 23015AD  23056.25001157  .00004908  00000+0  40866-4 0  9993
2 55476  42.9832 249.1099 0002380 274.9331 358.9745 15.71343723  3777
STARLINK-5685           
1 55477U 23015AE  23056.23618591  .00033766  00000+0  25969-3 0  9998
2 55477  43.0004 250.6048 0001426 262.5863  97.4843 15.71374134  3768
STARLINK-5691           
1 55478U 23015AF  23056.23545509  .00064108  00000+0  48955-3 0  9991
2 55478  43.0001 250.5991 0001100 290.8261  69.2489 15.71307861  3763
STARLINK-5688           
1 55479U 23015AG  23056.23628765  .00051417  00000+0  39250-3 0  9995
2 55479  43.0002 250.6057 0001835 263.3231  96.7428 15.71392327  3765
STARLINK-5690           
1 55480U 23015AH  23056.23555418  .00064989  00000+0  49449-3 0  9990
2 55480  43.0003 250.6018 0002272 286.2837  73.7781 15.71386925  3570
STARLINK-5694           
1 55481U 23015AJ  23056.23588263  .00053950  00000+0  41249-3 0  9991
2 55481  43.0004 250.6031 0001922 328.5270  31.5483 15.71337698  3764
STARLINK-5693           
1 55482U 23015AK  23056.23482289  .00058919  00000+0  44921-3 0  9993
2 55482  43.0005 250.5944 0002271 254.1922 105.8695 15.71373301  3574
STARLINK-5692           
1 55483U 23015AL  23056.23536115  .00084043  00000+0  63600-3 0  9994
2 55483  43.0005 250.5991 0002717 238.3494 121.7109 15.71423360  3769
STARLINK-5696           
1 55484U 23015AM  23056.23502079  .00004728  00000+0  39462-4 0  9999
2 55484  43.0007 250.5959 0002493 260.8335  99.2251 15.71369925  3764
STARLINK-5695           
1 55485U 23015AN  23056.23566415  .00079840  00000+0  60572-3 0  9996
2 55485  43.0005 250.6018 0002029 266.3026  93.7609 15.71383927  3576
STARLINK-5704           
1 55486U 23015AP  23055.91732730  .00025820  00000+0  19972-3 0  9993
2 55486  43.0005 252.5155 0002067 279.6132  80.4502 15.71355710  3717
STARLINK-5701           
1 55487U 23015AQ  23056.23577080  .00057417  00000+0  43819-3 0  9999
2 55487  43.0007 250.6021 0002208 258.0678 101.9943 15.71358964  3761
STARLINK-5706           
1 55488U 23015AR  23056.23450265  .00045778  00000+0  35033-3 0  9991
2 55488  43.0005 250.5920 0002160 268.1056  91.9564 15.71374078  3767
STARLINK-5371           
1 55489U 23015AS  23056.23524177  .00077714  00000+0  58971-3 0  9997
2 55489  43.0006 250.5981 0002121 265.3784  94.6841 15.71388653  3762
STARLINK-5373           
1 55490U 23015AT  23055.98005102  .00070663  00000+0  53811-3 0  9996
2 55490  43.0006 252.1234 0002237 253.7990 106.2631 15.71338101  3536
STARLINK-5364           
1 55491U 23015AU  23056.23244369  .00074596  00000+0  56653-3 0  9992
2 55491  42.9996 250.5658 0002115 270.1709  89.8917 15.71383203  3762
STARLINK-5013           
1 55492U 23015AV  23056.23461548  .00076210  00000+0  57888-3 0  9999
2 55492  43.0003 250.5942 0002025 262.9749  97.0889 15.71371894  3574
STARLINK-5362           
1 55493U 23015AW  23056.23440073  .00061848  00000+0  47105-3 0  9992
2 55493  43.0007 250.5912 0002143 256.1349 103.9281 15.71381485  3769
STARLINK-5344           
1 55494U 23015AX  23056.23418596  .00018696  00000+0  14570-3 0  9991
2 55494  43.0006 250.5889 0002048 266.3619  93.7014 15.71354542  3763
STARLINK-5100           
1 55495U 23015AY  23056.23471668  .00062606  00000+0  47751-3 0  9998
2 55495  43.0003 250.5934 0001231 259.5595 100.5134 15.71344408  3571
STARLINK-5139           
1 55496U 23015AZ  23056.23387425  .00055429  00000+0  42285-3 0  9998
2 55496  43.0009 250.5854 0001942 263.0372  97.0275 15.71381490  3760
STARLINK-5363           
1 55497U 23015BA  23056.23408378  .00073555  00000+0  55860-3 0  9993
2 55497  43.0008 250.5878 0002270 261.1502  98.9109 15.71388667  3764
STARLINK-5365           
1 55498U 23015BB  23056.23376687  .00070504  00000+0  53565-3 0  9992
2 55498  43.0006 250.5854 0002314 259.2649 100.7958 15.71393820  3767
STARLINK-5366           
1 55499U 23015BC  23056.23355890  .00052216  00000+0  39880-3 0  9990
2 55499  43.0005 250.5834 0002011 250.2757 109.7894 15.71374822  3556
STARLINK-5141           
1 55500U 23015BD  23056.23394710  .00096671  00000+0  73500-3 0  9997
2 55500  43.0001 250.5899 0001372 253.1515 106.9202 15.71261919  3766
STARLINK-5367           
1 55501U 23015BE  23055.91585782  .00074080  00000+0  56379-3 0  9998
2 55501  43.0004 252.5019 0002155 251.6981 108.3652 15.71335679  3711
FALCON 9 DEB            
1 55502U 23015BF  23055.89739679  .00250772  30649-4  86084-3 0  9999
2 55502  42.9877 250.5488 0015983 304.9194  55.0178 15.88701901  3733
FALCON 9 DEB            
1 55503U 23015BG  23055.88685223  .00268284  34333-4  86013-3 0  9997
2 55503  42.9838 250.4555 0018205 302.4361  57.4753 15.89964813  3733
FALCON 9 DEB            
1 55504U 23015BH  23055.87113292  .00249474  31056-4  75851-3 0  9996
2 55504  42.9807 250.3151 0018703 315.5374  44.3999 15.90989248  3731
FALCON 9 DEB            
1 55505U 23015BJ  23056.24786270  .00287441  38609-4  87388-3 0  9996
2 55505  42.9774 247.9724 0020468 314.6842  45.2365 15.90903598  3791
ELEKTRO-L 4             
1 55506U 23016A   23056.33095259 -.00000061  00000+0  00000+0 0  9991
2 55506   0.5152 285.5171 0037417  49.4935  95.4655  1.00714496   209
BLOCK DM-SL R/B         
1 55507U 23016B   23055.75183868 -.00000120  00000+0  00000+0 0  9997
2 55507   0.3917 275.8974 0096331  29.7563  53.4207  1.03219017   207
AMAZONAS NEXUS          
1 55508U 23017A   23055.30622295 -.00000431  00000+0  00000+0 0  9997
2 55508  18.8982 348.7636 7745099 183.0157 165.2403  1.08590625   214
FALCON 9 R/B            
1 55509U 23017B   23048.05522156  .00001006  00000+0  23504-2 0  9992
2 55509  24.9411 349.6435 8170614 181.2257 173.4294  1.25162264   126
PROGRESS-MS 22          
1 55560U 23018A   23055.57290509  .00017000  00000+0  31277-3 0  9997
2 55560  51.6389 166.3375 0005390  23.7047 166.5963 15.49291762384328
EOS-7                   
1 55562U 23019A   23056.38345245  .00079174  00000+0  18197-2 0  9993
2 55562  37.1860  18.9790 0007268 104.1084  30.2685 15.41517593  2338
AZAADISAT-2             
1 55563U 23019B   23056.28212863  .00033094  00000+0  73115-3 0  9995
2 55563  37.1846  19.4366 0011540 124.2249 235.9606 15.42899483  2331
JANUS-1                 
1 55564U 23019C   23056.28373547  .00071898  00000+0  15540-2 0  9994
2 55564  37.1859  19.4529 0008393 130.7269 229.4220 15.43369410  2336
